Satellite: DO-64
Catalog number: 32789
Epoch time: 17252.596750
Element set: 999
Inclination: 97.550200 deg
RA of node: 309.027600 deg
Eccentricity: 0.001322
Arg of perigee: 167.885000 deg
Mean anomaly: 192.269700 deg
Mean motion: 15.051499 rev/day
Decay rate: 6.670000e-05 rev/day^2
Epoch rev: 5094

Satellite: CO-66
Catalog number: 32791
Epoch time: 17252.308372
Element set: 999
Inclination: 97.558900 deg
RA of node: 277.346600 deg
Eccentricity: 0.001225
Arg of perigee: 228.984600 deg
Mean anomaly: 131.031400 deg
Mean motion: 14.903002 rev/day
Decay rate: 1.005000e-05 rev/day^2
Epoch rev: 5075

Satellite: RS-30
Catalog number: 32953
Epoch time: 17252.792311
Element set: 999
Inclination: 82.505800 deg
RA of node: 187.047100 deg
Eccentricity: 0.002014
Arg of perigee: 98.854000 deg
Mean anomaly: 261.482000 deg
Mean motion: 12.430791 rev/day
Decay rate: 4.400000e-07 rev/day^2
Epoch rev: 4219

Satellite: PRISM
Catalog number: 33493
Epoch time: 17252.722946
Element set: 999
Inclination: 98.156100 deg
RA of node: 138.676400 deg
Eccentricity: 0.001546
Arg of perigee: 157.602200 deg
Mean anomaly: 202.590300 deg
Mean motion: 14.958024 rev/day
Decay rate: 2.988000e-05 rev/day^2
Epoch rev: 4684

Satellite: NOAA-19
Catalog number: 33591
Epoch time: 17252.581383
Element set: 999
Inclination: 99.101700 deg
RA of node: 220.643100 deg
Eccentricity: 0.001472
Arg of perigee: 38.303500 deg
Mean anomaly: 321.917900 deg
Mean motion: 14.122097 rev/day
Decay rate: 1.380000e-06 rev/day^2
Epoch rev: 4423

Satellite: TISAT-1
Catalog number: 36799
Epoch time: 17252.332209
Element set: 999
Inclination: 98.071600 deg
RA of node: 16.813600 deg
Eccentricity: 0.001347
Arg of perigee: 55.046600 deg
Mean anomaly: 305.201500 deg
Mean motion: 14.904855 rev/day
Decay rate: 1.299000e-05 rev/day^2
Epoch rev: 3883

Satellite: JUGNU
Catalog number: 37839
Epoch time: 17252.426320
Element set: 999
Inclination: 19.961500 deg
RA of node: 299.700100 deg
Eccentricity: 0.001911
Arg of perigee: 32.416800 deg
Mean anomaly: 81.559900 deg
Mean motion: 14.125920 rev/day
Decay rate: 3.460000e-06 rev/day^2
Epoch rev: 3055

Satellite: SRMSAT
Catalog number: 37841
Epoch time: 17252.614060
Element set: 999
Inclination: 19.972900 deg
RA of node: 341.980800 deg
Eccentricity: 0.001173
Arg of perigee: 289.194000 deg
Mean anomaly: 207.901100 deg
Mean motion: 14.105827 rev/day
Decay rate: 3.580000e-06 rev/day^2
Epoch rev: 3051

Satellite: AO-71
Catalog number: 37854
Epoch time: 17252.594476
Element set: 999
Inclination: 101.691500 deg
RA of node: 169.133600 deg
Eccentricity: 0.016672
Arg of perigee: 185.075300 deg
Mean anomaly: 174.877500 deg
Mean motion: 15.043522 rev/day
Decay rate: 6.093000e-05 rev/day^2
Epoch rev: 3191

Satellite: HRBE
Catalog number: 37855
Epoch time: 17252.396201
Element set: 999
Inclination: 101.703800 deg
RA of node: 166.586700 deg
Eccentricity: 0.017990
Arg of perigee: 192.673600 deg
Mean anomaly: 166.992100 deg
Mean motion: 15.033153 rev/day
Decay rate: 4.543000e-05 rev/day^2
Epoch rev: 3189

Satellite: ALMASAT-1
Catalog number: 38078
Epoch time: 17252.591062
Element set: 999
Inclination: 69.431800 deg
RA of node: 264.715800 deg
Eccentricity: 0.029574
Arg of perigee: 166.940200 deg
Mean anomaly: 193.964900 deg
Mean motion: 15.256480 rev/day
Decay rate: 5.984400e-04 rev/day^2
Epoch rev: 2976

Satellite: HORYU-2
Catalog number: 38340
Epoch time: 17252.523951
Element set: 999
Inclination: 98.378300 deg
RA of node: 259.425100 deg
Eccentricity: 0.001229
Arg of perigee: 29.754500 deg
Mean anomaly: 330.435900 deg
Mean motion: 14.753908 rev/day
Decay rate: 9.130000e-06 rev/day^2
Epoch rev: 2753

Satellite: RS-40
Catalog number: 38735
Epoch time: 17252.753201
Element set: 999
Inclination: 82.471700 deg
RA of node: 271.454300 deg
Eccentricity: 0.001640
Arg of perigee: 200.279300 deg
Mean anomaly: 159.763700 deg
Mean motion: 12.425751 rev/day
Decay rate: 5.000000e-08 rev/day^2
Epoch rev: 2321

Satellite: BEESAT-3
Catalog number: 39134
Epoch time: 17252.615203
Element set: 999
Inclination: 64.865300 deg
RA of node: 313.887100 deg
Eccentricity: 0.003946
Arg of perigee: 250.270500 deg
Mean anomaly: 109.416300 deg
Mean motion: 15.180960 rev/day
Decay rate: 7.723000e-05 rev/day^2
Epoch rev: 2419

Satellite: BEESAT-2
Catalog number: 39136
Epoch time: 17252.528522
Element set: 999
Inclination: 64.872200 deg
RA of node: 326.051800 deg
Eccentricity: 0.003415
Arg of perigee: 271.291400 deg
Mean anomaly: 88.430000 deg
Mean motion: 15.153186 rev/day
Decay rate: 5.865000e-05 rev/day^2
Epoch rev: 2416

Satellite: ZACUBE-1
Catalog number: 39417
Epoch time: 17252.562229
Element set: 999
Inclination: 97.622400 deg
RA of node: 290.680600 deg
Eccentricity: 0.005908
Arg of perigee: 355.478700 deg
Mean anomaly: 4.588500 deg
Mean motion: 14.807630 rev/day
Decay rate: 9.620000e-06 rev/day^2
Epoch rev: 2052

Satellite: TRITON-1
Catalog number: 39427
Epoch time: 17252.604067
Element set: 999
Inclination: 97.637500 deg
RA of node: 262.303500 deg
Eccentricity: 0.011582
Arg of perigee: 78.532600 deg
Mean anomaly: 282.886000 deg
Mean motion: 14.675053 rev/day
Decay rate: 9.060000e-06 rev/day^2
Epoch rev: 2032

Satellite: GOMX-1
Catalog number: 39430
Epoch time: 17252.533706
Element set: 999
Inclination: 97.670000 deg
RA of node: 245.162300 deg
Eccentricity: 0.015285
Arg of perigee: 136.249700 deg
Mean anomaly: 225.093700 deg
Mean motion: 14.589129 rev/day
Decay rate: 7.020000e-06 rev/day^2
Epoch rev: 2020

Satellite: LO-74
Catalog number: 39440
Epoch time: 17252.608467
Element set: 999
Inclination: 97.623800 deg
RA of node: 279.246600 deg
Eccentricity: 0.008137
Arg of perigee: 27.512100 deg
Mean anomaly: 333.036100 deg
Mean motion: 14.755036 rev/day
Decay rate: 1.021000e-05 rev/day^2
Epoch rev: 2033

Satellite: AO-73
Catalog number: 39444
Epoch time: 17252.567438
Element set: 999
Inclination: 97.623900 deg
RA of node: 291.847900 deg
Eccentricity: 0.005814
Arg of perigee: 351.915400 deg
Mean anomaly: 8.111600 deg
Mean motion: 14.815073 rev/day
Decay rate: 1.174000e-05 rev/day^2
Epoch rev: 2035

Satellite: SPROUT
Catalog number: 39770
Epoch time: 17252.855820
Element set: 999
Inclination: 97.876300 deg
RA of node: 351.414100 deg
Eccentricity: 0.001043
Arg of perigee: 58.718700 deg
Mean anomaly: 301.503600 deg
Mean motion: 14.863758 rev/day
Decay rate: 2.960000e-05 rev/day^2
Epoch rev: 1787

