DO-64
1 32789U 08021G   17252.59675035  .00006670  00000-0  47139-3 0  9993
2 32789 097.5502 309.0276 0013217 167.8850 192.2697 15.05149891509468
CO-66
1 32791U 08021J   17252.30837235  .00001005  00000-0  10883-3 0  9990
2 32791 097.5589 277.3466 0012248 228.9846 131.0314 14.90300197507591
RS-30
1 32953U 08025A   17252.79231125  .00000044  00000-0  24680-3 0  9995
2 32953  82.5058 187.0471 0020135  98.8540 261.4820 12.43079100421934
PRISM
1 33493U 09002B   17252.72294617  .00002988  00000-0  27279-3 0  9995
2 33493  98.1561 138.6764 0015465 157.6022 202.5903 14.95802386468413
NOAA-19
1 33591U 09005A   17252.58138345  .00000138  00000-0  10009-3 0  9994
2 33591 099.1017 220.6431 0014723 038.3035 321.9179 14.12209661442304
TISAT-1
1 36799U 10035E   17252.33220903  .00001299  00000-0  13903-3 0  9992
2 36799  98.0716  16.8136 0013473  55.0466 305.2015 14.90485519388311
JUGNU
1 37839U 11058B   17252.42632044  .00000346  00000-0  42825-4 0  9995
2 37839 019.9615 299.7001 0019114 032.4168 081.5599 14.12592035305514
SRMSAT
1 37841U 11058D   17252.61405976  .00000358  00000-0  51855-4 0  9997
2 37841 019.9729 341.9808 0011728 289.1940 207.9011 14.10582680305123
AO-71
1 37854U 11061E   17252.59447557  .00006093  00000-0  32829-3 0  9994
2 37854 101.6915 169.1336 0166724 185.0753 174.8775 15.04352206319174
HRBE
1 37855U 11061F   17252.39620124  .00004543  00000-0  24241-3 0  9993
2 37855 101.7038 166.5867 0179896 192.6736 166.9921 15.03315287318970
ALMASAT-1
1 38078U 12006B   17252.59106216  .00059844  43736-5  63164-3 0  9993
2 38078 069.4318 264.7158 0295738 166.9402 193.9649 15.25648015297640
HORYU-2
1 38340U 12025D   17252.52395087  .00000913  00000-0  14254-3 0  9996
2 38340 098.3783 259.4251 0012286 029.7545 330.4359 14.75390803275312
RS-40
1 38735U 12041C   17252.75320066  .00000005  00000-0 -36052-4 0  9996
2 38735  82.4717 271.4543 0016396 200.2793 159.7637 12.42575058232195
BEESAT-3
1 39134U 13015E   17252.61520347  .00007723  00000-0  37887-3 0  9990
2 39134 064.8653 313.8871 0039462 250.2705 109.4163 15.18096028241911
BEESAT-2
1 39136U 13015G   17252.52852155  .00005865  00000-0  31548-3 0  9990
2 39136 064.8722 326.0518 0034147 271.2914 088.4300 15.15318592241665
ZACUBE-1
1 39417U 13066B   17252.56222877  .00000962  00000-0  12785-3 0  9999
2 39417 097.6224 290.6806 0059080 355.4787 004.5885 14.80763009205261
TRITON-1
1 39427U 13066M   17252.60406745  .00000906  00000-0  15233-3 0  9992
2 39427 097.6375 262.3035 0115816 078.5326 282.8860 14.67505334203230
GOMX-1
1 39430U 13066Q   17252.53370647  .00000702  00000-0  13592-3 0  9999
2 39430 097.6700 245.1623 0152852 136.2497 225.0937 14.58912887202047
LO-74
1 39440U 13066AA  17252.60846679  .00001021  00000-0  14932-3 0  9995
2 39440 097.6238 279.2466 0081367 027.5121 333.0361 14.75503603203341
AO-73
1 39444U 13066AE  17252.56743827  .00001174  00000-0  15204-3 0  9997
2 39444 097.6239 291.8479 0058142 351.9154 008.1116 14.81507338203518
SPROUT
1 39770U 14029E   17252.85582034  .00002960  00000-0  34153-3 0  9990
2 39770  97.8763 351.4141 0010426  58.7187 301.5036 14.86375807178717
